ONEWEB-0249             
1 48967U 21060A   25289.02586152  .00000102  00000+0  23444-3 0  9990
2 48967  87.8972 277.4226 0001909  93.0073 267.1277 13.16593131207484
ONEWEB-0250             
1 48968U 21060B   25289.01685557  .00000065  00000+0  11879-3 0  9996
2 48968  87.8967 275.9795 0002909  93.3209 266.8260 13.25815039207862
ONEWEB-0252             
1 48970U 21060D   25288.98152480  .00000059  00000+0  11980-3 0  9994
2 48970  87.8977 277.4247 0001580  88.8500 271.2812 13.16596946207521
ONEWEB-0253             
1 48971U 21060E   25288.97044010  .00000116  00000+0  26875-3 0  9996
2 48971  87.8977 277.4308 0001830  95.0548 265.0792 13.16595165207452
ONEWEB-0254             
1 48972U 21060F   25288.90394632  .00000060  00000+0  12445-3 0  9994
2 48972  87.8984 277.4323 0002030  98.9939 261.1422 13.16596994207444
ONEWEB-0255             
1 48973U 21060G   25289.01795066  .00000010  00000+0 -64721-5 0  9996
2 48973  87.8964 277.4320 0001959  96.3314 263.8040 13.16593874207537
ONEWEB-0256             
1 48974U 21060H   25288.96807361  .00000108  00000+0  24852-3 0  9998
2 48974  87.8967 277.4527 0001781  84.9117 275.2217 13.16594224207495
ONEWEB-0257             
1 48975U 21060J   25289.07652899  .00000046  00000+0  87053-4 0  9990
2 48975  87.8978 277.4033 0001816  93.8462 266.2877 13.16594155207463
